ONEWEB-0319             
1 49105U 21075AG  24345.59873494  .00000142  00000+0  33199-3 0  9995
2 49105  87.9098 116.1698 0002053 105.5449 254.5909 13.17650576160701
ONEWEB-0323             
1 49106U 21075AH  24345.55888671  .00000376  00000+0  10107-2 0  9997
2 49106  87.8879 100.8961 0002377 109.8075 250.3310 13.12443332161933
ONEWEB-0329             
1 49107U 21075AJ  24345.91089912  .00000084  00000+0  18211-3 0  9990
2 49107  87.9098 116.1121 0001689 106.8674 253.2642 13.17652717160723
ONEWEB-0330             
1 49108U 21075AK  24345.91259579  .00000068  00000+0  14111-3 0  9996
2 49108  87.9098 116.1134 0001542 112.4836 247.6459 13.17650443160760
ONEWEB-0292             
1 49186U 21083A   24345.65788077 -.00000309  00000+0 -88248-3 0  9994
2 49186  87.8933  70.3537 0001930 101.9942 258.1403 13.13468635158267
ONEWEB-0303             
1 49187U 21083B   24345.70998981  .00000098  00000+0  21597-3 0  9995
2 49187  87.9113  85.5818 0001909 103.0985 257.0360 13.18688851157038
ONEWEB-0306             
1 49188U 21083C   24345.54875397  .00000102  00000+0  22595-3 0  9998
2 49188  87.9113  85.5997 0001514 106.5449 253.5849 13.18687911157053
ONEWEB-0307             
1 49189U 21083D   24345.49997495 -.00000259  00000+0 -74390-3 0  9992
2 49189  87.8937  70.3875 0001436 113.4229 246.7051 13.13469797158246
